STATUS,MNET_ID,ELEVATION,NAME,SHORTNAME,DISTANCE,SGID,NWSFIREZONE,STID,LONGITUDE,COUNTY,CWA,STATE,NWSZONE,LATITUDE,TIMEZONE,GACC,COUNTRY,ID
ACTIVE,25,5130,PARADISE,SNOTEL,4.97,NW02,SEW659,AFSW1,-121.74765,Lewis,SEW,WA,WA569,46.78265,America/Los_Angeles,NWCC,US,1519
ACTIVE,25,4610,BUMPING RIDGE,SNOTEL,20.73,NW05,OTX680,BMPW1,-121.33058,Yakima,PDT,WA,WA520,46.81003,America/Los_Angeles,NWCC,US,1521
ACTIVE,25,4170,BURNT MOUNTAIN,SNOTEL,15.58,NW02,SEW659,BUSW1,-121.94032,Pierce,SEW,WA,WA569,47.0444,America/Los_Angeles,NWCC,US,1523
ACTIVE,25,5800,CORRAL PASS,SNOTEL,18.17,NW02,SEW659,COPW1,-121.46464,Pierce,SEW,WA,WA569,47.01872,America/Los_Angeles,NWCC,US,1524
ACTIVE,25,3200,COUGAR MOUNTAIN,SNOTEL,29.56,NW02,SEW659,CUMW1,-121.67138,King,SEW,WA,WA568,47.27666,America/Los_Angeles,NWCC,US,1525
ACTIVE,25,5410,MORSE LAKE,SNOTEL,13.79,NW05,OTX680,MRSW1,-121.4827,Yakima,PDT,WA,WA520,46.90585,America/Los_Angeles,NWCC,US,1540
ACTIVE,25,3160,MOWICH,SNOTEL,10.26,NW02,SEW659,MHSW1,-121.95232,Pierce,SEW,WA,WA569,46.92833,America/Los_Angeles,NWCC,US,1544
ACTIVE,25,5800,PIGTAIL PEAK,SNOTEL,24.03,NW02,OTX680,PGPW1,-121.38643,Yakima,PDT,WA,WA520,46.62153,America/Los_Angeles,NWCC,US,1547
ACTIVE,25,4440,WHITE PASS E.S.,SNOTEL,23.32,NW05,OTX680,WHPW1,-121.38153,Yakima,PDT,WA,WA520,46.64142,America/Los_Angeles,NWCC,US,1572
INACTIVE,2,2405,GREENWATER,RAWS,19.77,NW02,SEW659,GWFW1,-121.595556,Pierce,SEW,WA,WA569,47.115556,America/Los_Angeles,NWCC,US,2386
INACTIVE,2,3600,HAGER CREEK,RAWS,21.01,NW02,SEW659,HGFW1,-121.627778,Lewis,SEW,WA,WA569,46.564444,America/Los_Angeles,NWCC,US,2388
ACTIVE,2,2100,KOSMOS,RAWS,30.43,NW02,SEW659,KOSW1,-122.19,Lewis,SEW,WA,WA569,46.523889,America/Los_Angeles,NWCC,US,2401
ACTIVE,2,1637,LESTER,RAWS,27.82,NW02,SEW659,LSFW1,-121.489722,King,SEW,WA,WA568,47.21,America/Los_Angeles,NWCC,US,2405
INACTIVE,36,4308,White Pass Summit,WA DOT,23.16,NW05,SEW659,TWHIT,-121.39,Lewis,SEW,WA,WA569,46.638,America/Los_Angeles,NWCC,US,2566
INACTIVE,37,6240,Chinook Pass,NWAC,11.6,NW02,SEW659,CHPW1,-121.52,Pierce,SEW,WA,WA569,46.87,America/Los_Angeles,NWCC,US,2596
ACTIVE,106,3532,WHITE RIVER RANGER STATION RAINIER NATIONAL PARK AT SUNRISE,HADS,10.48,NW02,SEW659,WHTW1,-121.55444,Pierce,SEW,WA,WA569,46.9025,America/Los_Angeles,NWCC,US,2599
INACTIVE,37,6870,Crystal Mountain,NWAC,15.13,NW02,SEW659,CMTW1,-121.47,Pierce,SEW,WA,WA569,46.94,America/Los_Angeles,NWCC,US,2601
INACTIVE,37,5499,Paradise Mt. Rainier,NWAC,4.69,NW02,SEW659,PVCW1,-121.73,Pierce,SEW,WA,WA569,46.79,America/Los_Angeles,NWCC,US,2604
INACTIVE,40,640,ENUMCLAW 212TH SE,WAAQ,28.29,NW01,SEW657,ENU21,-122.06,King,SEW,WA,WA555,47.21,America/Los_Angeles,NWCC,US,2761
ACTIVE,37,6830,Crystal Summit,NWAC,13.68,NW02,SEW659,CMT69,-121.50043,Pierce,SEW,WA,WA569,46.93505,America/Los_Angeles,NWCC,US,6175
ACTIVE,37,4570,Crystal Base,NWAC,14.66,NW02,SEW659,CMT44,-121.47473,Pierce,SEW,WA,WA569,46.92988,America/Los_Angeles,NWCC,US,6176
INACTIVE,37,4470,White Pass Base,NWAC,23.13,NW02,SEW659,WPS45,-121.39155,Lewis,SEW,WA,WA569,46.63735,America/Los_Angeles,NWCC,US,6177
ACTIVE,37,5800,White Pass Upper,NWAC,24.04,NW02,SEW659,WPS58,-121.38737,Lewis,SEW,WA,WA569,46.62077,America/Los_Angeles,NWCC,US,6178
ACTIVE,37,5400,Paradise,NWAC,4.77,NW02,SEW659,PVC54,-121.7424,Pierce,SEW,WA,WA569,46.78622,America/Los_Angeles,NWCC,US,6179
INACTIVE,37,5561,Chinook Pass,NWAC,11.6,NW02,SEW659,CHP56,-121.52,Pierce,SEW,WA,WA569,46.87,America/Los_Angeles,NWCC,US,6181
ACTIVE,37,6240,Chinook Pass Summit,NWAC,11.72,NW02,SEW659,CHP62,-121.51957,Pierce,SEW,WA,WA569,46.88053,America/Los_Angeles,NWCC,US,6182
ACTIVE,2,1950,OHANAPECOSH,RAWS,12.45,NW02,SEW659,OHAW1,-121.571111,Lewis,SEW,WA,WA569,46.731389,America/Los_Angeles,NWCC,US,6848
INACTIVE,65,636,CW0672 Bonney Lake,APRSWXNET/CWOP,31.08,NW01,SEW657,C0672,-122.1845,Pierce,SEW,WA,WA555,47.2005,America/Los_Angeles,NWCC,US,7955
ACTIVE,65,627,CW1558 Orting,APRSWXNET/CWOP,24.34,NW01,SEW657,C1558,-122.182,Pierce,SEW,WA,WA555,47.0607,America/Los_Angeles,NWCC,US,8835
INACTIVE,65,850,WW7CH Eatonville,APRSWXNET/CWOP,24.03,NW02,SEW657,AR266,-122.27267,Pierce,SEW,WA,WA555,46.866,America/Los_Angeles,NWCC,US,8849
ACTIVE,2,756,ENUMCLAW,RAWS,27.02,NW01,SEW657,ENCW1,-121.963889,King,SEW,WA,WA555,47.220278,America/Los_Angeles,NWCC,US,10161
ACTIVE,40,997,ENUMCLAW MUD MOUNTAIN ROAD,WAAQ,21.39,NW02,SEW659,ENUMU,-121.933,King,SEW,WA,WA569,47.141,America/Los_Angeles,NWCC,US,10333
ACTIVE,37,6410,Sunrise Base,NWAC,7.06,NW02,SEW659,SUN64,-121.64417,Pierce,SEW,WA,WA569,46.91437,America/Los_Angeles,NWCC,US,10363
INACTIVE,35,374,Spanaway,WX4U,30.51,NW01,SEW657,H0106,-122.32,Pierce,SEW,WA,WA509,47.08,America/Los_Angeles,NWCC,US,11611
INACTIVE,65,558,CW3409 Puyallup,APRSWXNET/CWOP,30.73,NW01,SEW657,C3409,-122.3185,Pierce,SEW,WA,WA509,47.0877,America/Los_Angeles,NWCC,US,13306
ACTIVE,37,6880,Sunrise Upper,NWAC,6.99,NW02,SEW659,SUN69,-121.6516,Pierce,SEW,WA,WA569,46.91918,America/Los_Angeles,NWCC,US,14337
ACTIVE,65,600,AC7KP Eatonville,APRSWXNET/CWOP,28.29,NW01,SEW657,AS028,-122.35667,Pierce,SEW,WA,WA555,46.91517,America/Los_Angeles,NWCC,US,14797
ACTIVE,65,745,CW5049 Enumclaw,APRSWXNET/CWOP,26.86,NW01,SEW657,C5049,-122.00003,King,SEW,WA,WA555,47.20764,America/Los_Angeles,NWCC,US,15076
INACTIVE,65,518,CW5101 Bonney Lake,APRSWXNET/CWOP,29.08,NW01,SEW657,C5101,-122.1917,Pierce,SEW,WA,WA555,47.1573,America/Los_Angeles,NWCC,US,15086
INACTIVE,65,125,CW5490 Orting,APRSWXNET/CWOP,29.54,NW01,SEW657,C5490,-122.2412,Pierce,SEW,WA,WA509,47.1312,America/Los_Angeles,NWCC,US,15476
ACTIVE,65,740,CW5581 Graham,APRSWXNET/CWOP,28.26,NW01,SEW657,C5581,-122.31383,Pierce,SEW,WA,WA555,47.0165,America/Los_Angeles,NWCC,US,15581
ACTIVE,37,10110,Camp Muir,NWAC,1.94,NW02,SEW659,MU101,-121.73305,Pierce,SEW,WA,WA569,46.83542,America/Los_Angeles,NWCC,US,17500
INACTIVE,106,2690,BUCK CK CAMP MET STATION NR GREENWATER 10SE,HADS,15.33,NW02,SEW659,BKGW1,-121.55222,Pierce,SEW,WA,WA569,47.02167,America/Los_Angeles,NWCC,US,18409
ACTIVE,106,1640,PUYALLUP RIVER NEAR ELECTRON NEAR ORTING 19SE,HADS,13.19,NW02,SEW659,ELEW1,-122.03389,Pierce,SEW,WA,WA569,46.90389,America/Los_Angeles,NWCC,US,18414
ACTIVE,106,1211,CARBON RIVER NEAR FAIRFAX NEAR CARBONADO 4S,HADS,17.43,NW02,SEW659,FFXW1,-122.03139,Pierce,SEW,WA,WA569,47.02806,America/Los_Angeles,NWCC,US,18415
ACTIVE,106,1720,GREENWATER RIVER AT GREENWATER NEAR ENUMCLAW 17ESE,HADS,21.61,NW02,SEW659,GRNW1,-121.63444,King,SEW,WA,WA568,47.15361,America/Los_Angeles,NWCC,US,18416
ACTIVE,106,1450,NISQUALLY RIVER NEAR NATIONAL NEAR ASHFORD 2W,HADS,16.58,NW02,SEW657,NISW1,-122.0825,Pierce,SEW,WA,WA569,46.75278,America/Los_Angeles,NWCC,US,18419
ACTIVE,106,1047,COWLITZ RIVER AT PACKWOOD,HADS,17.12,NW02,SEW655,PACW1,-121.67806,Lewis,SEW,WA,WA569,46.61306,America/Los_Angeles,NWCC,US,18423
ACTIVE,106,430,SOUTH PRAIRIE CREEK AT SOUTH PRAIRIE,HADS,25.06,NW01,SEW657,SPEW1,-122.09139,Pierce,SEW,WA,WA555,47.13972,America/Los_Angeles,NWCC,US,18432
INACTIVE,106,655,WHITE RIVER CANAL AT BUCKLY,HADS,26.15,NW01,SEW657,WRCW1,-122.06333,Pierce,SEW,WA,WA555,47.1725,America/Los_Angeles,NWCC,US,18435
INACTIVE,106,3600,DEEP CREEK BLO COPPER CREEK NEAR NACHES 29NW,HADS,21.16,NW05,OTX680,DEPW1,-121.31778,Yakima,PDT,WA,WA520,46.8325,America/Los_Angeles,NWCC,US,18444
INACTIVE,65,449,CW7454 Spanaway,APRSWXNET/CWOP,31.25,NW01,SEW657,C7454,-122.34467,Pierce,SEW,WA,WA509,47.072,America/Los_Angeles,NWCC,US,18767
INACTIVE,65,479,CW7296 Puyallup,APRSWXNET/CWOP,29.01,NW01,SEW657,C7296,-122.2705,Pierce,SEW,WA,WA509,47.0925,America/Los_Angeles,NWCC,US,18813
INACTIVE,65,869,CW6700 Graham,APRSWXNET/CWOP,25.48,NW01,SEW657,C6700,-122.2395,Pierce,SEW,WA,WA555,47.02917,America/Los_Angeles,NWCC,US,21446
ACTIVE,1,538,Pierce County-Thun Field,NWS/FAA,30.1,NW01,SEW657,KPLU,-122.287,Pierce,SEW,WA,WA509,47.104,America/Los_Angeles,NWCC,US,21627
ACTIVE,25,4640,SAWMILL RIDGE,SNOTEL,26.62,NW02,SEW659,SAWW1,-121.42172,King,SEW,WA,WA568,47.15992,America/Los_Angeles,NWCC,US,22298
ACTIVE,65,440,CW9111 Elk Plain,APRSWXNET/CWOP,31.57,NW01,SEW657,C9111,-122.368,Pierce,SEW,WA,WA509,47.05117,America/Los_Angeles,NWCC,US,22329
INACTIVE,65,571,CW9328 Graham,APRSWXNET/CWOP,29.45,NW01,SEW657,C9328,-122.30933,Pierce,SEW,WA,WA509,47.06183,America/Los_Angeles,NWCC,US,22527
INACTIVE,65,1427,CW9619 Mineral,APRSWXNET/CWOP,20.74,NW02,SEW657,C9619,-122.15222,Lewis,SEW,WA,WA569,46.71364,America/Los_Angeles,NWCC,US,22841
ACTIVE,116,3400,Bumping Reservoir,YAKIMA,22.02,NW05,OTX680,RBUM,-121.2989,Yakima,PDT,WA,WA520,46.8686,America/Los_Angeles,NWCC,US,22876
ACTIVE,116,5980,Cash Prairie,YAKIMA,30.61,NW05,OTX680,RCSPW,-121.1506,Yakima,PDT,WA,WA520,46.7139,America/Los_Angeles,NWCC,US,22878
INACTIVE,65,781,CW9782 Enumclaw,APRSWXNET/CWOP,26.49,NW01,SEW657,C9782,-121.99113,King,SEW,WA,WA555,47.20446,America/Los_Angeles,NWCC,US,23048
INACTIVE,65,1850,DW0258 Ashford,APRSWXNET/CWOP,12.4,NW02,SEW659,D0258,-121.9644,Lewis,SEW,WA,WA569,46.73769,America/Los_Angeles,NWCC,US,23679
INACTIVE,65,873,DW1787 Enumclaw,APRSWXNET/CWOP,29.53,NW01,SEW657,D1787,-121.92137,King,SEW,WA,WA555,47.26744,America/Los_Angeles,NWCC,US,25009
ACTIVE,65,612,DW2232 Bonney Lake,APRSWXNET/CWOP,29.25,NW01,SEW657,D2232,-122.14833,Pierce,SEW,WA,WA555,47.18633,America/Los_Angeles,NWCC,US,25341
INACTIVE,65,873,DW2276 Buckley,APRSWXNET/CWOP,23.74,NW01,SEW657,D2276,-122.0245,Pierce,SEW,WA,WA555,47.14783,America/Los_Angeles,NWCC,US,25420
INACTIVE,65,725,DW2219 Enumclaw,APRSWXNET/CWOP,25.75,NW01,SEW657,D2219,-122.02283,King,SEW,WA,WA555,47.182,America/Los_Angeles,NWCC,US,25480
INACTIVE,65,574,DW2425 Puyallup,APRSWXNET/CWOP,30.45,NW01,SEW657,D2425,-122.26254,Pierce,SEW,WA,WA509,47.13437,America/Los_Angeles,NWCC,US,25508
ACTIVE,25,5240,CAYUSE PASS,SNOTEL,10.93,NW02,SEW659,CAYW1,-121.5343,Pierce,SEW,WA,WA569,46.86954,America/Los_Angeles,NWCC,US,26220
ACTIVE,25,3900,LYNN LAKE,SNOTEL,24.06,NW02,SEW659,LAKW1,-121.77972,King,SEW,WA,WA568,47.20172,America/Los_Angeles,NWCC,US,26222
ACTIVE,65,4100,BALDI Baldi Mt,APRSWXNET/CWOP,25.54,NW01,SEW659,AT226,-121.8425,King,SEW,WA,WA568,47.21944,America/Los_Angeles,NWCC,US,26290
INACTIVE,65,2779,WW7CH-11 Longmire,APRSWXNET/CWOP,7.57,NW02,SEW659,AT312,-121.811,Pierce,SEW,WA,WA569,46.7488,America/Los_Angeles,NWCC,US,26533
INACTIVE,65,630,DW3821 Graham,APRSWXNET/CWOP,29.43,NW01,SEW657,D3821,-122.301,Pierce,SEW,WA,WA509,47.07117,America/Los_Angeles,NWCC,US,26661
INACTIVE,65,1296,DW3865 Mineral,APRSWXNET/CWOP,21.85,NW02,SEW657,D3865,-122.1795,Lewis,SEW,WA,WA569,46.715,America/Los_Angeles,NWCC,US,26688
INACTIVE,65,476,K7EK Spanaway,APRSWXNET/CWOP,31.36,NW01,SEW657,AT368,-122.35059,Pierce,SEW,WA,WA509,47.06797,America/Los_Angeles,NWCC,US,26905
ACTIVE,106,685,RAIN GAGE NEAR BUCKLEY 1NE,HADS,24.41,NW01,SEW657,BUCW1,-122.00361,Pierce,SEW,WA,WA555,47.16694,America/Los_Angeles,NWCC,US,27225
INACTIVE,106,622,WEATHER STATION NEAR  ENUMCLAW 3NW,HADS,29.23,NW01,SEW657,ENMW1,-122.03889,King,SEW,WA,WA555,47.23306,America/Los_Angeles,NWCC,US,27227
ACTIVE,106,1312,RAIN GAGE AT MUD MOUNTAIN DAM WEATHER SITE NEAR ENUMCLAW 5SSE,HADS,21.46,NW02,SEW657,ENUW1,-121.93556,King,SEW,WA,WA555,47.14139,America/Los_Angeles,NWCC,US,27228
ACTIVE,106,583,RAIN GAGE AT MCMILLIN RESERVOIR,HADS,30.27,NW01,SEW657,MMLW1,-122.25583,Pierce,SEW,WA,WA509,47.13583,America/Los_Angeles,NWCC,US,27230
ACTIVE,106,1699,GREENWATER WEATHER STATION AT GREENWATER,HADS,20.28,NW02,SEW659,GRWW1,-121.63694,Pierce,SEW,WA,WA569,47.13389,America/Los_Angeles,NWCC,US,27231
ACTIVE,106,918,PALMER 2ESE,HADS,31.51,NW01,SEW659,PALW1,-121.85139,King,SEW,WA,WA568,47.30583,America/Los_Angeles,NWCC,US,27232
INACTIVE,106,1733,RAIN GAGE AT RAINIER CARBON RIVER  ENT NEAR CARBONADO 8SE,HADS,11.92,NW02,SEW659,RCRW1,-121.91139,Pierce,SEW,WA,WA569,46.99389,America/Los_Angeles,NWCC,US,27233
INACTIVE,65,510,DW4913 Graham,APRSWXNET/CWOP,29.09,NW01,SEW657,D4913,-122.31783,Pierce,SEW,WA,WA509,47.0395,America/Los_Angeles,NWCC,US,27435
ACTIVE,134,2762,Longmire,SEWWFO,7.56,NW02,SEW659,RLGW1,-121.8119,Pierce,SEW,WA,WA569,46.7492,America/Los_Angeles,NWCC,US,27584
INACTIVE,65,591,DW5834 Enumclaw,APRSWXNET/CWOP,28.58,NW01,SEW657,D5834,-122.0595,King,SEW,WA,WA555,47.215,America/Los_Angeles,NWCC,US,29028
INACTIVE,65,656,DW7353 Bonney Lake,APRSWXNET/CWOP,28.79,NW01,SEW657,D7353,-122.16917,Pierce,SEW,WA,WA555,47.16583,America/Los_Angeles,NWCC,US,30388
ACTIVE,2,1421,ASHFORD,RAWS,17.69,NW02,SEW657,ASHW1,-122.10975,Pierce,SEW,WA,WA569,46.755219,America/Los_Angeles,NWCC,US,30445
ACTIVE,65,1290,W7ALK-13 Packwood,APRSWXNET/CWOP,17.79,NW02,SEW655,AU102,-121.657,Lewis,SEW,WA,WA569,46.607,America/Los_Angeles,NWCC,US,30773
ACTIVE,37,5500,Chinook Pass Base,NWAC,11.75,NW05,OTX680,CHP55,-121.51738,Yakima,PDT,WA,WA520,46.87327,America/Los_Angeles,NWCC,US,32892
ACTIVE,106,1613,LESTER WEATHER STATION,HADS,27.87,NW02,SEW659,LECW1,-121.48806,King,SEW,WA,WA568,47.21028,America/Los_Angeles,NWCC,US,32952
ACTIVE,65,666,DW9951 Bonney Lake,APRSWXNET/CWOP,29.58,NW01,SEW657,D9951,-122.17923,Pierce,SEW,WA,WA555,47.17496,America/Los_Angeles,NWCC,US,33127
ACTIVE,106,2847,AMERICAN RIVER NEAR NILE 16NW,HADS,29.45,NW05,OTX680,AMRW1,-121.1675,Yakima,PDT,WA,WA520,46.97778,America/Los_Angeles,NWCC,US,39090
ACTIVE,136,1319,Enumclaw Mud Mt (SO),AIRNOW,21.48,NW02,SEW657,A1381,-121.9379,King,SEW,WA,WA555,47.1411,America/Los_Angeles,NWCC,US,39806
ACTIVE,65,540,EW3649 Bonney Lake,APRSWXNET/CWOP,31.54,NW01,SEW657,E3649,-122.141,Pierce,SEW,WA,WA555,47.23117,America/Los_Angeles,NWCC,US,41117
ACTIVE,65,630,EW4883 Black Diamond,APRSWXNET/CWOP,31.67,NW01,SEW657,E4883,-122.00633,King,SEW,WA,WA555,47.28133,America/Los_Angeles,NWCC,US,42796
ACTIVE,36,375,SR7 at SR706,WA DOT,21.17,NW02,SEW657,TELBE,-122.192,Pierce,SEW,WA,WA569,46.7631,America/Los_Angeles,NWCC,US,43308
ACTIVE,65,935,EW6084 Enumclaw,APRSWXNET/CWOP,29.32,NW01,SEW657,E6084,-121.9345,King,SEW,WA,WA555,47.26183,America/Los_Angeles,NWCC,US,44003
ACTIVE,65,466,EW6420 Puyallup,APRSWXNET/CWOP,31.6,NW01,SEW657,E6420,-122.26283,Pierce,SEW,WA,WA509,47.15967,America/Los_Angeles,NWCC,US,44332
ACTIVE,65,598,EW6959 Puyallup,APRSWXNET/CWOP,28.22,NW01,SEW657,E6959,-122.244,Pierce,SEW,WA,WA509,47.098,America/Los_Angeles,NWCC,US,44744
ACTIVE,203,NA,"HUCKLEBERRY CREEK NEAR GREENWATER, WA",USGS HYDRO,16.13,NW02,SEW659,USGSHY659,-121.6056517,Pierce,SEW,WA,WA569,47.0603864,America/Los_Angeles,NWCC,US,45542
ACTIVE,203,880,"COWLITZ RIVER AT RANDLE, WA",USGS HYDRO,24,NW02,SEW655,USGSHY668,-121.9567607,Lewis,SEW,WA,WA569,46.5323332,America/Los_Angeles,NWCC,US,45551
ACTIVE,203,1632.7,"PUYALLUP RIVER NEAR ELECTRON, WA",USGS HYDRO,13.24,NW02,SEW659,USGSHY682,-122.0351092,Pierce,SEW,WA,WA569,46.9037164,America/Los_Angeles,NWCC,US,45565
ACTIVE,203,NA,"WHITE RIVER NEAR BUCKLEY, WA",USGS HYDRO,22.34,NW01,SEW657,USGSHY691,-121.9498317,King,SEW,WA,WA555,47.1512137,America/Los_Angeles,NWCC,US,45574
ACTIVE,203,925,"NISQUALLY RIVER AT LA GRANDE DAM, WA",USGS HYDRO,25.61,NW02,SEW655,USGSHY693,-122.30428,Pierce,SEW,WA,WA504,46.82260445,America/Los_Angeles,NWCC,US,45576
ACTIVE,203,859.53,"GREEN RIVER AT PURIFICATION PLANT NEAR PALMER, WA",USGS HYDRO,31.46,NW01,SEW659,USGSHY697,-121.8506647,King,SEW,WA,WA568,47.30510257,America/Los_Angeles,NWCC,US,45580
ACTIVE,203,630,"BOISE CREEK AT BUCKLEY, WA",USGS HYDRO,25.28,NW01,SEW657,USGSHY717,-122.0184452,King,SEW,WA,WA555,47.175935,America/Los_Angeles,NWCC,US,45600
ACTIVE,203,352.5,"PUYALLUP RIVER NEAR ORTING, WA",USGS HYDRO,24.54,NW01,SEW657,USGSHY728,-122.2078925,Pierce,SEW,WA,WA555,47.03926867,America/Los_Angeles,NWCC,US,45611
ACTIVE,203,1450,"NISQUALLY RIVER NEAR NATIONAL, WA",USGS HYDRO,16.64,NW02,SEW657,USGSHY747,-122.0837194,Pierce,SEW,WA,WA569,46.75260766,America/Los_Angeles,NWCC,US,45630
ACTIVE,203,650,"WHITE RIVER ABOVE BOISE CREEK AT BUCKLEY, WA",USGS HYDRO,24.93,NW01,SEW657,USGSHY753,-122.0080556,King,SEW,WA,WA555,47.17388889,America/Los_Angeles,NWCC,US,45636
ACTIVE,203,759.29,"COWLITZ RIVER NEAR KOSMOS, WA",USGS HYDRO,31.36,NW02,SEW655,USGSHY757,-122.1089856,Lewis,SEW,WA,WA569,46.4662217,America/Los_Angeles,NWCC,US,45640
ACTIVE,203,2700,"AMERICAN RIVER NEAR NILE, WA",USGS HYDRO,29.39,NW05,OTX680,USGSHY758,-121.168696,Yakima,PDT,WA,WA520,46.97761606,America/Los_Angeles,NWCC,US,45641
ACTIVE,203,NA,"WHITE RIVER BELOW CLEARWATER RIVER NR BUCKLEY, WA",USGS HYDRO,20.75,NW02,SEW659,USGSHY768,-121.8601066,King,SEW,WA,WA569,47.1467703,America/Los_Angeles,NWCC,US,45651
ACTIVE,203,1201.7,"CARBON RIVER NEAR FAIRFAX, WA",USGS HYDRO,17.47,NW02,SEW659,USGSHY772,-122.0326105,Pierce,SEW,WA,WA569,47.02788105,America/Los_Angeles,NWCC,US,45655
ACTIVE,203,675,"WHITE RIVER FLUME AT BUCKLEY, WA",USGS HYDRO,24.75,NW01,SEW657,USGSHY785,-122.012056,Pierce,SEW,WA,WA555,47.1695462,America/Los_Angeles,NWCC,US,45668
ACTIVE,203,NA,"PUYALLUP RIVER AT ALDERTON, WA",USGS HYDRO,31.7,NW01,SEW657,USGSHY812,-122.2295625,Pierce,SEW,WA,WA509,47.18510115,America/Los_Angeles,NWCC,US,45695
ACTIVE,203,1048,"COWLITZ RIVER AT PACKWOOD, WA",USGS HYDRO,17.12,NW02,SEW655,USGSHY820,-121.6792552,Lewis,SEW,WA,WA569,46.61288969,America/Los_Angeles,NWCC,US,45703
ACTIVE,203,1340,"MINERAL CREEK NEAR MINERAL, WA",USGS HYDRO,19.5,NW02,SEW657,USGSHY833,-122.1445534,Lewis,SEW,WA,WA569,46.74427397,America/Los_Angeles,NWCC,US,45716
ACTIVE,203,990,"GREEN RIVER BELOW HOWARD A HANSON DAM, WA",USGS HYDRO,29.76,NW01,SEW659,USGSHY863,-121.797885,King,SEW,WA,WA568,47.2837143,America/Los_Angeles,NWCC,US,45746
ACTIVE,203,400,"SOUTH PRAIRIE CREEK AT SOUTH PRAIRIE, WA",USGS HYDRO,25.09,NW01,SEW657,USGSHY867,-122.0926135,Pierce,SEW,WA,WA555,47.13954628,America/Los_Angeles,NWCC,US,45750
ACTIVE,203,490,"NISQUALLY RIVER AT LA GRANDE, WA",USGS HYDRO,26.71,NW01,SEW655,USGSHY869,-122.3292809,Pierce,SEW,WA,WA504,46.83927048,America/Los_Angeles,NWCC,US,45752
ACTIVE,203,1400,"CLEARWATER RIVER NEAR BUCKLEY, WA",USGS HYDRO,19,NW02,SEW659,USGSHY874,-121.8026044,Pierce,SEW,WA,WA569,47.1273267,America/Los_Angeles,NWCC,US,45757
ACTIVE,203,619.53,"MASHEL RIVER NEAR LA GRANDE, WA",USGS HYDRO,25.43,NW01,SEW657,USGSHY881,-122.3026139,Pierce,SEW,WA,WA555,46.85677048,America/Los_Angeles,NWCC,US,45764
ACTIVE,203,1260,"CISPUS RIVER AB YELLOWJACKET CREEK NEAR RANDLE, WA",USGS HYDRO,28.53,NW02,SEW659,USGSHY888,-121.8400888,Lewis,SEW,WA,WA569,46.44400155,America/Los_Angeles,NWCC,US,45771
ACTIVE,203,1727,"GREENWATER RIVER AT GREENWATER, WA",USGS HYDRO,21.59,NW02,SEW659,USGSHY895,-121.6356543,King,SEW,WA,WA569,47.1534409,America/Los_Angeles,NWCC,US,45778
ACTIVE,203,NA,"WHITE RIVER AT HEADWORKS AB FLUME NR BUCKLEY, WA",USGS HYDRO,24.56,NW01,SEW657,USGSHY899,-122.0026114,King,SEW,WA,WA555,47.169824,America/Los_Angeles,NWCC,US,45782
ACTIVE,204,2988,CLEAR LAKE (ELEV),USBR HYDRO,28.08,NW05,OTX680,CLR,-121.2705556,Yakima,PDT,WA,WA520,46.62861111,America/Los_Angeles,NWCC,US,46725
ACTIVE,204,2988,CLEAR LAKE OUTFLOW (N FORK TIETON R. BLW CLEAR LAKE),USBR HYDRO,28.11,NW05,OTX680,CLYW,-121.2677778,Yakima,PDT,WA,WA520,46.63083333,America/Los_Angeles,NWCC,US,46753
ACTIVE,204,3600,DEEP CREEK BELOW COPPER CREEK,USBR HYDRO,21.16,NW05,OTX680,DEPW,-121.3177778,Yakima,PDT,WA,WA520,46.8325,America/Los_Angeles,NWCC,US,46775
ACTIVE,204,5980,CASH PRAIRIE,USBR HYDRO,30.61,NW05,OTX680,CSPW,-121.1505556,Yakima,PDT,WA,WA520,46.71388889,America/Los_Angeles,NWCC,US,46782
ACTIVE,204,0,BUMPING RESERVOIR RIVER AND WEATHER STATION,USBR HYDRO,22.02,NW05,OTX680,BUM,-121.2988889,Yakima,PDT,WA,WA520,46.86861111,America/Los_Angeles,NWCC,US,46814
ACTIVE,37,6230,Crystal Green Valley,NWAC,14.06,NW02,SEW659,GRN62,-121.49433,Pierce,SEW,WA,WA569,46.93943,America/Los_Angeles,NWCC,US,47596
ACTIVE,37,5380,Paradise Wind,NWAC,4.87,NW02,SEW659,PVW54,-121.7419,Pierce,SEW,WA,WA569,46.78487,America/Los_Angeles,NWCC,US,47600
ACTIVE,37,5970,White Pass Pigtail,NWAC,23.86,NW02,OTX680,WPS60,-121.388,Lewis,PDT,WA,WA520,46.624,America/Los_Angeles,NWCC,US,47601
ACTIVE,25,3770,SKATE CREEK,SNOTEL,14.86,NW02,SEW659,SKTW1,-121.83044,Lewis,SEW,WA,WA569,46.64336,America/Los_Angeles,NWCC,US,47715
ACTIVE,65,524,EW8380 Puyallup,APRSWXNET/CWOP,30.99,NW01,SEW657,E8380,-122.267,Pierce,SEW,WA,WA509,47.14283,America/Los_Angeles,NWCC,US,48059